{
  "type": "FeatureCollection",
  "name": "galicica_course_aoi",
  "features": [
    {
      "type": "Feature",
      "properties": {
        "name": "Galičica course AOI"
      },
      "geometry": {
        "type": "Polygon",
        "coordinates": [
          [
            [
              20.74978714732087,
              41.15495344072711
            ],
            [
              20.783667861149933,
              41.265065760671575
            ],
            [
              20.83731232471262,
              41.361061116520595
            ],
            [
              20.965306132511316,
              41.31965135517396
            ],
            [
              21.053772440842764,
              41.27165367724945
            ],
            [
              21.051890178963372,
              40.977079693124516
            ],
            [
              20.953071430295264,
              40.987432133461176
            ],
            [
              20.91542619270741,
              40.94978689587332
            ],
            [
              20.997304584460988,
              40.91120052734578
            ],
            [
              20.91072053800893,
              40.8057938620998
            ],
            [
              20.809078396521734,
              40.831204397471595
            ],
            [
              20.71967095725059,
              40.90273034888851
            ],
            [
              20.74978714732087,
              41.15495344072711
            ]
          ]
        ]
      }
    }
  ]
}